"{\n    \"CCSDS_OMM_VERS\": \"2.0\",\n    \"COMMENT\": \"GENERATED VIA SPACE-TRACK.ORG API\",\n    \"CREATION_DATE\": \"2025-08-30T11:24:46\",\n    \"ORIGINATOR\": \"18 SPCS\",\n    \"OBJECT_NAME\": \"BEIDOU 3M17\",\n    \"OBJECT_ID\": \"2018-093A\",\n    \"CENTER_NAME\": \"EARTH\",\n    \"REF_FRAME\": \"TEME\",\n    \"TIME_SYSTEM\": \"UTC\",\n    \"MEAN_ELEMENT_THEORY\": \"SGP4\",\n    \"EPOCH\": \"2025-08-30T08:32:47.775264\",\n    \"MEAN_MOTION\": \"1.8622844968\",\n    \"ECCENTRICITY\": \"0.00094470423\",\n    \"INCLINATION\": \"54.18076\",\n    \"RA_OF_ASC_NODE\": \"192.16327\",\n    \"ARG_OF_PERICENTER\": \"292.24305\",\n    \"MEAN_ANOMALY\": \"118.89651\",\n    \"EPHEMERIS_TYPE\": \"0\",\n    \"CLASSIFICATION_TYPE\": \"U\",\n    \"NORAD_CAT_ID\": \"43706\",\n    \"ELEMENT_SET_NO\": \"999\",\n    \"REV_AT_EPOCH\": \"4612\",\n    \"BSTAR\": \"0\",\n    \"MEAN_MOTION_DOT\": \"0.000000348739\",\n    \"MEAN_MOTION_DDOT\": \"0\",\n    \"TLE_LINE0\": \"0 BEIDOU 3M17\",\n    \"TLE_LINE1\": \"1 43706U 18093A   25242.35610851  .00000035  00000-0  00000-0 0  9993\",\n    \"TLE_LINE2\": \"2 43706  54.1808 192.1633 0009447 292.2431 118.8965  1.86228450 46127\",\n    \"SEMIMAJOR_AXIS\": \"27906.443\",\n    \"PERIOD\": \"773.244\",\n    \"APOAPSIS\": \"21554.672\",\n    \"PERIAPSIS\": \"21501.945\",\n    \"OBJECT_TYPE\": \"PAYLOAD\",\n    \"DECAYED\": \"0\"\n}"